[{"OBJECT_NAME":"FENGYUN 1C DEB","OBJECT_ID":"1999-025RL","EPOCH":"2026-03-02T19:57:41.348448","MEAN_MOTION":14.14476842,"ECCENTRICITY":0.0128066,"INCLINATION":98.8319,"RA_OF_ASC_NODE":122.9589,"ARG_OF_PERICENTER":48.237,"MEAN_ANOMALY":312.9665,"EPHEMERIS_TYPE":0,"CLASSIFICATION_TYPE":"U","NORAD_CAT_ID":30107,"ELEMENT_SET_NO":999,"REV_AT_EPOCH":98693,"BSTAR":0.00011635,"MEAN_MOTION_DOT":1.98e-6,"MEAN_MOTION_DDOT":0},{"OBJECT_NAME":"FENGYUN 1C DEB","OBJECT_ID":"1999-025RM","EPOCH":"2026-03-03T04:46:37.080192","MEAN_MOTION":14.17317326,"ECCENTRICITY":0.0197263,"INCLINATION":98.6698,"RA_OF_ASC_NODE":51.0764,"ARG_OF_PERICENTER":150.4009,"MEAN_ANOMALY":274.0918,"EPHEMERIS_TYPE":0,"CLASSIFICATION_TYPE":"U","NORAD_CAT_ID":30108,"ELEMENT_SET_NO":999,"REV_AT_EPOCH":98738,"BSTAR":0.00019391,"MEAN_MOTION_DOT":4.31e-6,"MEAN_MOTION_DDOT":0},{"OBJECT_NAME":"FENGYUN 1C DEB","OBJECT_ID":"1999-025RN","EPOCH":"2026-03-02T22:39:55.592352","MEAN_MOTION":14.17708918,"ECCENTRICITY":0.0168007,"INCLINATION":98.5151,"RA_OF_ASC_NODE":57.1342,"ARG_OF_PERICENTER":1.3838,"MEAN_ANOMALY":59.2407,"EPHEMERIS_TYPE":0,"CLASSIFICATION_TYPE":"U","NORAD_CAT_ID":30109,"ELEMENT_SET_NO":999,"REV_AT_EPOCH":98688,"BSTAR":0.0006177,"MEAN_MOTION_DOT":1.403e-5,"MEAN_MOTION_DDOT":0},{"OBJECT_NAME":"FENGYUN 1C DEB","OBJECT_ID":"1999-025RP","EPOCH":"2026-03-02T20:58:26.770944","MEAN_MOTION":13.56277784,"ECCENTRICITY":0.026897,"INCLINATION":98.9053,"RA_OF_ASC_NODE":168.1179,"ARG_OF_PERICENTER":146.4177,"MEAN_ANOMALY":215.4339,"EPHEMERIS_TYPE":0,"CLASSIFICATION_TYPE":"U","NORAD_CAT_ID":30110,"ELEMENT_SET_NO":999,"REV_AT_EPOCH":94601,"BSTAR":0.00033626,"MEAN_MOTION_DOT":2.62e-6,"MEAN_MOTION_DDOT":0},{"OBJECT_NAME":"FENGYUN 1C DEB","OBJECT_ID":"1999-025RR","EPOCH":"2026-03-02T21:48:45.573984","MEAN_MOTION":14.22611432,"ECCENTRICITY":0.0199051,"INCLINATION":99.2921,"RA_OF_ASC_NODE":45.169,"ARG_OF_PERICENTER":239.7033,"MEAN_ANOMALY":118.4317,"EPHEMERIS_TYPE":0,"CLASSIFICATION_TYPE":"U","NORAD_CAT_ID":30112,"ELEMENT_SET_NO":999,"REV_AT_EPOCH":98722,"BSTAR":0.00053041,"MEAN_MOTION_DOT":1.399e-5,"MEAN_MOTION_DDOT":0},{"OBJECT_NAME":"FENGYUN 1C DEB","OBJECT_ID":"1999-025RS","EPOCH":"2026-03-03T04:08:16.532448","MEAN_MOTION":14.46578453,"ECCENTRICITY":0.0038579,"INCLINATION":99.0379,"RA_OF_ASC_NODE":284.608,"ARG_OF_PERICENTER":121.1306,"MEAN_ANOMALY":356.8375,"EPHEMERIS_TYPE":0,"CLASSIFICATION_TYPE":"U","NORAD_CAT_ID":30113,"ELEMENT_SET_NO":999,"REV_AT_EPOCH":99071,"BSTAR":0.0017811,"MEAN_MOTION_DOT":6.436e-5,"MEAN_MOTION_DDOT":0},{"OBJECT_NAME":"FENGYUN 1C DEB","OBJECT_ID":"1999-025RT","EPOCH":"2026-03-02T23:59:54.118752","MEAN_MOTION":14.0973005,"ECCENTRICITY":0.0080141,"INCLINATION":98.7501,"RA_OF_ASC_NODE":67.109,"ARG_OF_PERICENTER":252.7953,"MEAN_ANOMALY":162.0016,"EPHEMERIS_TYPE":0,"CLASSIFICATION_TYPE":"U","NORAD_CAT_ID":30114,"ELEMENT_SET_NO":999,"REV_AT_EPOCH":98285,"BSTAR":0.00021121,"MEAN_MOTION_DOT":3.38e-6,"MEAN_MOTION_DDOT":0},{"OBJECT_NAME":"FENGYUN 1C DEB","OBJECT_ID":"1999-025RU","EPOCH":"2026-03-03T00:57:11.919456","MEAN_MOTION":14.2015636,"ECCENTRICITY":0.0067792,"INCLINATION":98.6147,"RA_OF_ASC_NODE":92.2423,"ARG_OF_PERICENTER":187.1063,"MEAN_ANOMALY":227.5126,"EPHEMERIS_TYPE":0,"CLASSIFICATION_TYPE":"U","NORAD_CAT_ID":30115,"ELEMENT_SET_NO":999,"REV_AT_EPOCH":98468,"BSTAR":0.00092058,"MEAN_MOTION_DOT":1.967e-5,"MEAN_MOTION_DDOT":0},{"OBJECT_NAME":"FENGYUN 1C DEB","OBJECT_ID":"1999-025RV","EPOCH":"2026-03-03T04:56:46.461120","MEAN_MOTION":14.29962744,"ECCENTRICITY":0.0022755,"INCLINATION":99.3887,"RA_OF_ASC_NODE":144.5002,"ARG_OF_PERICENTER":118.4799,"MEAN_ANOMALY":267.9694,"EPHEMERIS_TYPE":0,"CLASSIFICATION_TYPE":"U","NORAD_CAT_ID":30116,"ELEMENT_SET_NO":999,"REV_AT_EPOCH":98659,"BSTAR":0.0016203,"MEAN_MOTION_DOT":4.141e-5,"MEAN_MOTION_DDOT":0},{"OBJECT_NAME":"FENGYUN 1C DEB","OBJECT_ID":"1999-025RW","EPOCH":"2026-03-02T22:44:36.144384","MEAN_MOTION":14.07235986,"ECCENTRICITY":0.0163864,"INCLINATION":98.8128,"RA_OF_ASC_NODE":53.3793,"ARG_OF_PERICENTER":344.1292,"MEAN_ANOMALY":81.3266,"EPHEMERIS_TYPE":0,"CLASSIFICATION_TYPE":"U","NORAD_CAT_ID":30117,"ELEMENT_SET_NO":999,"REV_AT_EPOCH":98117,"BSTAR":0.00026748,"MEAN_MOTION_DOT":4.63e-6,"MEAN_MOTION_DDOT":0},{"OBJECT_NAME":"FENGYUN 1C DEB","OBJECT_ID":"1999-025RX","EPOCH":"2026-03-02T23:13:58.225728","MEAN_MOTION":14.05159333,"ECCENTRICITY":0.0084166,"INCLINATION":98.8056,"RA_OF_ASC_NODE":68.3643,"ARG_OF_PERICENTER":193.8382,"MEAN_ANOMALY":195.5025,"EPHEMERIS_TYPE":0,"CLASSIFICATION_TYPE":"U","NORAD_CAT_ID":30118,"ELEMENT_SET_NO":999,"REV_AT_EPOCH":98058,"BSTAR":5.9909e-5,"MEAN_MOTION_DOT":5.7e-7,"MEAN_MOTION_DDOT":0},{"OBJECT_NAME":"FENGYUN 1C DEB","OBJECT_ID":"1999-025RY","EPOCH":"2026-03-02T22:00:27.281952","MEAN_MOTION":14.22786141,"ECCENTRICITY":0.0132255,"INCLINATION":97.9273,"RA_OF_ASC_NODE":52.8601,"ARG_OF_PERICENTER":55.6762,"MEAN_ANOMALY":335.0468,"EPHEMERIS_TYPE":0,"CLASSIFICATION_TYPE":"U","NORAD_CAT_ID":30119,"ELEMENT_SET_NO":999,"REV_AT_EPOCH":98320,"BSTAR":0.0019823,"MEAN_MOTION_DOT":4.829e-5,"MEAN_MOTION_DDOT":0},{"OBJECT_NAME":"FENGYUN 1C DEB","OBJECT_ID":"1999-025RZ","EPOCH":"2026-03-03T04:11:53.570112","MEAN_MOTION":14.283654,"ECCENTRICITY":0.0059727,"INCLINATION":98.8444,"RA_OF_ASC_NODE":150.1298,"ARG_OF_PERICENTER":338.618,"MEAN_ANOMALY":50.6016,"EPHEMERIS_TYPE":0,"CLASSIFICATION_TYPE":"U","NORAD_CAT_ID":30120,"ELEMENT_SET_NO":999,"REV_AT_EPOCH":98519,"BSTAR":0.0014029,"MEAN_MOTION_DOT":3.528e-5,"MEAN_MOTION_DDOT":0},{"OBJECT_NAME":"FENGYUN 1C DEB","OBJECT_ID":"1999-025SA","EPOCH":"2026-03-03T02:43:47.244864","MEAN_MOTION":14.41312864,"ECCENTRICITY":0.0028225,"INCLINATION":102.158,"RA_OF_ASC_NODE":122.0098,"ARG_OF_PERICENTER":306.9921,"MEAN_ANOMALY":107.0157,"EPHEMERIS_TYPE":0,"CLASSIFICATION_TYPE":"U","NORAD_CAT_ID":30121,"ELEMENT_SET_NO":999,"REV_AT_EPOCH":98697,"BSTAR":0.002336,"MEAN_MOTION_DOT":7.527e-5,"MEAN_MOTION_DDOT":0},{"OBJECT_NAME":"FENGYUN 1C DEB","OBJECT_ID":"1999-025SC","EPOCH":"2026-03-02T18:15:31.546656","MEAN_MOTION":14.26845339,"ECCENTRICITY":0.02254574,"INCLINATION":96.9309,"RA_OF_ASC_NODE":350.6731,"ARG_OF_PERICENTER":200.7358,"MEAN_ANOMALY":158.457,"EPHEMERIS_TYPE":0,"CLASSIFICATION_TYPE":"U","NORAD_CAT_ID":30123,"ELEMENT_SET_NO":999,"REV_AT_EPOCH":98388,"BSTAR":0.00068970344,"MEAN_MOTION_DOT":2.156e-5,"MEAN_MOTION_DDOT":0},{"OBJECT_NAME":"FENGYUN 1C DEB","OBJECT_ID":"1999-025SD","EPOCH":"2026-03-03T02:36:02.198592","MEAN_MOTION":14.14563471,"ECCENTRICITY":0.0142104,"INCLINATION":99.1213,"RA_OF_ASC_NODE":122.7434,"ARG_OF_PERICENTER":238.2028,"MEAN_ANOMALY":151.0182,"EPHEMERIS_TYPE":0,"CLASSIFICATION_TYPE":"U","NORAD_CAT_ID":30124,"ELEMENT_SET_NO":999,"REV_AT_EPOCH":98051,"BSTAR":0.00096233,"MEAN_MOTION_DOT":1.989e-5,"MEAN_MOTION_DDOT":0},{"OBJECT_NAME":"FENGYUN 1C DEB","OBJECT_ID":"1999-025SE","EPOCH":"2026-03-02T19:41:38.486112","MEAN_MOTION":14.23538237,"ECCENTRICITY":0.03408656,"INCLINATION":98.7188,"RA_OF_ASC_NODE":165.0534,"ARG_OF_PERICENTER":111.8268,"MEAN_ANOMALY":9.6129,"EPHEMERIS_TYPE":0,"CLASSIFICATION_TYPE":"U","NORAD_CAT_ID":30125,"ELEMENT_SET_NO":999,"REV_AT_EPOCH":98060,"BSTAR":0.0011649522,"MEAN_MOTION_DOT":4.798e-5,"MEAN_MOTION_DDOT":0},{"OBJECT_NAME":"FENGYUN 1C DEB","OBJECT_ID":"1999-025SG","EPOCH":"2026-03-03T00:39:21.706848","MEAN_MOTION":14.39470834,"ECCENTRICITY":0.0082275,"INCLINATION":98.2091,"RA_OF_ASC_NODE":280.0817,"ARG_OF_PERICENTER":198.4896,"MEAN_ANOMALY":161.3298,"EPHEMERIS_TYPE":0,"CLASSIFICATION_TYPE":"U","NORAD_CAT_ID":30127,"ELEMENT_SET_NO":999,"REV_AT_EPOCH":98390,"BSTAR":0.0025926,"MEAN_MOTION_DOT":8.371e-5,"MEAN_MOTION_DDOT":0},{"OBJECT_NAME":"FENGYUN 1C DEB","OBJECT_ID":"1999-025SH","EPOCH":"2026-03-02T21:57:41.883840","MEAN_MOTION":14.48579417,"ECCENTRICITY":0.0100985,"INCLINATION":96.9855,"RA_OF_ASC_NODE":51.7074,"ARG_OF_PERICENTER":232.0673,"MEAN_ANOMALY":186.2194,"EPHEMERIS_TYPE":0,"CLASSIFICATION_TYPE":"U","NORAD_CAT_ID":30128,"ELEMENT_SET_NO":999,"REV_AT_EPOCH":98471,"BSTAR":0.0029111,"MEAN_MOTION_DOT":0.00011652,"MEAN_MOTION_DDOT":0},{"OBJECT_NAME":"FENGYUN 1C DEB","OBJECT_ID":"1999-025SJ","EPOCH":"2026-03-02T19:26:46.707648","MEAN_MOTION":14.01786083,"ECCENTRICITY":0.01850129,"INCLINATION":98.041,"RA_OF_ASC_NODE":359.2103,"ARG_OF_PERICENTER":224.3375,"MEAN_ANOMALY":160.8475,"EPHEMERIS_TYPE":0,"CLASSIFICATION_TYPE":"U","NORAD_CAT_ID":30129,"ELEMENT_SET_NO":999,"REV_AT_EPOCH":97600,"BSTAR":0.0003365116,"MEAN_MOTION_DOT":5.57e-6,"MEAN_MOTION_DDOT":0},{"OBJECT_NAME":"FENGYUN 1C DEB","OBJECT_ID":"1999-025SL","EPOCH":"2026-03-03T03:49:25.162464","MEAN_MOTION":14.22055888,"ECCENTRICITY":0.0079123,"INCLINATION":99.0696,"RA_OF_ASC_NODE":161.2361,"ARG_OF_PERICENTER":286.3823,"MEAN_ANOMALY":145.4408,"EPHEMERIS_TYPE":0,"CLASSIFICATION_TYPE":"U","NORAD_CAT_ID":30131,"ELEMENT_SET_NO":999,"REV_AT_EPOCH":97831,"BSTAR":0.0022208,"MEAN_MOTION_DOT":5.027e-5,"MEAN_MOTION_DDOT":0},{"OBJECT_NAME":"FENGYUN 1C DEB","OBJECT_ID":"1999-025SM","EPOCH":"2026-03-03T02:54:17.156160","MEAN_MOTION":13.94963319,"ECCENTRICITY":0.0104149,"INCLINATION":99.5886,"RA_OF_ASC_NODE":23.7722,"ARG_OF_PERICENTER":193.0456,"MEAN_ANOMALY":230.061,"EPHEMERIS_TYPE":0,"CLASSIFICATION_TYPE":"U","NORAD_CAT_ID":30132,"ELEMENT_SET_NO":999,"REV_AT_EPOCH":97210,"BSTAR":0.00051442,"MEAN_MOTION_DOT":6.76e-6,"MEAN_MOTION_DDOT":0},{"OBJECT_NAME":"FENGYUN 1C DEB","OBJECT_ID":"1999-025SN","EPOCH":"2026-03-03T00:59:46.629024","MEAN_MOTION":14.07137927,"ECCENTRICITY":0.0083231,"INCLINATION":98.3297,"RA_OF_ASC_NODE":227.4236,"ARG_OF_PERICENTER":32.6123,"MEAN_ANOMALY":94.242,"EPHEMERIS_TYPE":0,"CLASSIFICATION_TYPE":"U","NORAD_CAT_ID":30133,"ELEMENT_SET_NO":999,"REV_AT_EPOCH":97507,"BSTAR":0.0013615,"MEAN_MOTION_DOT":2.313e-5,"MEAN_MOTION_DDOT":0}]
